NORAD_CAT_ID,OBJECT_NAME,OBJECT_TYPE,EPOCH,MEAN_MOTION,ECCENTRICITY,INCLINATION,RA_OF_ASC_NODE,ARG_OF_PERICENTER,MEAN_ANOMALY,BSTAR,MEAN_MOTION_DOT,MEAN_MOTION_DDOT,TLE_LINE0,TLE_LINE1,TLE_LINE2,SEMIMAJOR_AXIS,PERIOD,APOGEE,PERIGEE,DECAYED
51753.0,STARLINK-3507,PAYLOAD,2024-07-20 11:38:26,15.08845656,0.000126,53.2161,110.0861,95.8289,264.2846,0.00023698,3.486e-05,0.0,0 STARLINK-3507,1 51753U 22016AR  24202.48503262  .00003486  00000-0  23698-3 0  9994,2 51753  53.2161 110.0861 0001260  95.8289 264.2846 15.08845656133544,6917.863,95.437,540.6,538.856,0.0
51753.0,STARLINK-3507,PAYLOAD,2024-07-20 21:10:46,15.08827021,0.0001555,53.2151,108.301,100.2592,259.8576,6.9657e-05,8.2e-06,0.0,0 STARLINK-3507,1 51753U 22016AR  24202.88248382  .00000820  00000-0  69657-4 0  9992,2 51753  53.2151 108.3010 0001555 100.2592 259.8576 15.08827021134675,6917.92,95.438,540.861,538.709,0.0
51753.0,STARLINK-3507,PAYLOAD,2024-07-20 22:46:09,15.08828381,0.0001366,53.2154,108.0069,87.3631,272.7517,0.00012191,1.652e-05,0.0,0 STARLINK-3507,1 51753U 22016AR  24202.94872471  .00001652  00000-0  12191-3 0  9995,2 51753  53.2154 108.0069 0001366  87.3631 272.7517 15.08828381133610,6917.916,95.438,540.726,538.836,0.0
51753.0,STARLINK-3507,PAYLOAD,2024-07-21 03:32:18,15.08837156,0.0001722,53.2172,107.1092,112.0887,248.0288,0.00014652,2.044e-05,0.0,0 STARLINK-3507,1 51753U 22016AR  24203.14744053  .00002044  00000-0  14652-3 0  9992,2 51753  53.2172 107.1092 0001722 112.0887 248.0288 15.08837156134714,6917.889,95.438,540.945,538.563,0.0
51753.0,STARLINK-3507,PAYLOAD,2024-07-21 22:36:56,15.08837324,0.0001418,53.2158,103.5428,103.4667,256.6483,0.00021518,3.138e-05,0.0,0 STARLINK-3507,1 51753U 22016AR  24203.94232606  .00003138  00000-0  21518-3 0  9990,2 51753  53.2158 103.5428 0001418 103.4667 256.6483 15.08837324133766,6917.889,95.438,540.735,538.773,0.0
51753.0,STARLINK-3507,PAYLOAD,2024-07-22 22:27:43,15.08841387,0.0001424,53.2158,99.0821,110.3874,249.7271,0.00041976,6.399e-05,0.0,0 STARLINK-3507,1 51753U 22016AR  24204.93592513  .00006399  00000-0  41976-3 0  9998,2 51753  53.2158  99.0821 0001424 110.3874 249.7271 15.08841387133915,6917.876,95.437,540.726,538.756,0.0
51753.0,STARLINK-3507,PAYLOAD,2024-07-23 09:35:24,15.08864683,0.0001265,53.2148,96.999,80.9415,279.172,0.00043493,6.645e-05,0.0,0 STARLINK-3507,1 51753U 22016AR  24205.39958960  .00006645  00000-0  43493-3 0  9991,2 51753  53.2148  96.9990 0001265  80.9415 279.1720 15.08864683135050,6917.805,95.436,540.545,538.795,0.0
51753.0,STARLINK-3507,PAYLOAD,2024-07-23 22:18:31,15.08820201,0.00012,53.2154,94.625,95.8007,264.3121,-0.00022428,-3.853e-05,0.0,0 STARLINK-3507,1 51753U 22016AR  24205.92953373 -.00003853  00000-0 -22428-3 0  9998,2 51753  53.2154  94.6250 0001200  95.8007 264.3121 15.08820201134061,6917.941,95.439,540.636,538.976,0.0
51753.0,STARLINK-3507,PAYLOAD,2024-07-24 22:09:18,15.08838355,0.0001137,53.2154,90.1606,96.3342,263.7779,4.5942e-05,4.43e-06,0.0,0 STARLINK-3507,1 51753U 22016AR  24206.92312985  .00000443  00000-0  45942-4 0  9994,2 51753  53.2154  90.1606 0001137  96.3342 263.7779 15.08838355134212,6917.885,95.438,540.537,538.964,0.0
51753.0,STARLINK-3507,PAYLOAD,2024-07-25 01:20:04,15.08844241,0.0001245,53.216,89.5633,121.6588,238.4526,0.00012813,1.752e-05,0.0,0 STARLINK-3507,1 51753U 22016AR  24207.05560555  .00001752  00000-0  12813-3 0  9991,2 51753  53.2160  89.5633 0001245 121.6588 238.4526 15.08844241135306,6917.867,95.437,540.594,538.871,0.0
51753.0,STARLINK-3507,PAYLOAD,2024-07-25 22:00:06,15.08819504,0.0001374,53.2162,85.6939,124.9551,235.157,0.00085029,0.00013263,0.0,0 STARLINK-3507,1 51753U 22016AR  24207.91673892  .00013263  00000-0  85029-3 0  9994,2 51753  53.2162  85.6939 0001374 124.9551 235.1570 15.08819504134365,6917.943,95.439,540.759,538.858,0.0
51753.0,STARLINK-3507,PAYLOAD,2024-07-25 23:35:29,15.08817756,0.0001169,53.2154,85.3975,121.0451,239.0656,0.00085186,0.00013287,0.0,0 STARLINK-3507,1 51753U 22016AR  24207.98298027  .00013287  00000-0  85186-3 0  9994,2 51753  53.2154  85.3975 0001169 121.0451 239.0656 15.08817756135447,6917.948,95.439,540.622,539.005,0.0
51753.0,STARLINK-3507,PAYLOAD,2024-07-26 09:07:47,15.08849398,0.0001116,53.2164,83.6229,101.6486,258.4632,0.00027553,4.101e-05,0.0,0 STARLINK-3507,1 51753U 22016AR  24208.38040512  .00004101  00000-0  27553-3 0  9992,2 51753  53.2164  83.6229 0001116 101.6486 258.4632 15.08849398134439,6917.852,95.437,540.489,538.945,0.0
51753.0,STARLINK-3507,PAYLOAD,2024-07-26 21:50:52,15.08849233,0.0001044,53.2157,81.2401,96.36,263.7511,1.5022e-05,-4.9e-07,0.0,0 STARLINK-3507,1 51753U 22016AR  24208.91032455 -.00000049  00000-0  15022-4 0  9995,2 51753  53.2157  81.2401 0001044  96.3600 263.7511 15.08849233135585,6917.852,95.437,540.439,538.995,0.0
51753.0,STARLINK-3507,PAYLOAD,2024-07-27 21:41:39,15.08840822,0.0001034,53.2167,76.7786,104.8645,255.2462,1.3938e-05,-6.6e-07,0.0,0 STARLINK-3507,1 51753U 22016AR  24209.90392671 -.00000066  00000-0  13938-4 0  9997,2 51753  53.2167  76.7786 0001034 104.8645 255.2462 15.08840822134668,6917.878,95.438,540.458,539.028,0.0
51753.0,STARLINK-3507,PAYLOAD,2024-07-28 21:32:26,15.08840625,0.0001093,53.2165,72.319,104.5527,255.5586,6.3809e-05,7.28e-06,0.0,0 STARLINK-3507,1 51753U 22016AR  24210.89752832  .00000728  00000-0  63809-4 0  9992,2 51753  53.2165  72.3190 0001093 104.5527 255.5586 15.08840625134816,6917.878,95.438,540.5,538.987,0.0
51753.0,STARLINK-3507,PAYLOAD,2024-07-29 21:23:14,15.08833938,0.0001198,53.2171,67.8594,87.9024,272.2105,9.1077e-05,1.162e-05,0.0,0 STARLINK-3507,1 51753U 22016AR  24211.89113532  .00001162  00000-0  91077-4 0  9992,2 51753  53.2171  67.8594 0001198  87.9024 272.2105 15.08833938136030,6917.899,95.438,540.593,538.935,0.0
51753.0,STARLINK-3507,PAYLOAD,2024-07-30 06:55:32,15.0884341,0.0001207,53.2176,66.076,91.2052,268.9079,0.00016156,2.285e-05,0.0,0 STARLINK-3507,1 51753U 22016AR  24212.28856844  .00002285  00000-0  16156-3 0  9997,2 51753  53.2176  66.0760 0001207  91.2052 268.9079 15.08843410136095,6917.87,95.437,540.57,538.9,0.0
51753.0,STARLINK-3507,PAYLOAD,2024-07-30 14:52:28,15.08834263,0.0001418,53.2186,64.5976,93.2786,266.8369,0.00012657,1.727e-05,0.0,0 STARLINK-3507,1 51753U 22016AR  24212.61977735  .00001727  00000-0  12657-3 0  9999,2 51753  53.2186  64.5976 0001418  93.2786 266.8369 15.08834263135070,6917.898,95.438,540.744,538.782,0.0
51753.0,STARLINK-3507,PAYLOAD,2024-07-30 21:14:01,15.08846996,0.0001548,53.2188,63.4071,101.3181,258.7985,-4.8922e-05,-1.067e-05,0.0,0 STARLINK-3507,1 51753U 22016AR  24212.88473387 -.00001067  00000-0 -48922-4 0  9996,2 51753  53.2188  63.4071 0001548 101.3181 258.7985 15.08846996135115,6917.859,95.437,540.795,538.653,0.0
51753.0,STARLINK-3507,PAYLOAD,2024-07-31 06:46:19,15.08844582,0.0001745,53.2168,61.6137,84.8757,275.2434,0.00011286,1.509e-05,0.0,0 STARLINK-3507,1 51753U 22016AR  24213.28217095  .00001509  00000-0  11286-3 0  9994,2 51753  53.2168  61.6137 0001745  84.8757 275.2434 15.08844582136246,6917.866,95.437,540.939,538.524,0.0
51753.0,STARLINK-3507,PAYLOAD,2024-07-31 21:04:48,15.08831904,0.0001381,53.2182,58.9432,101.6553,258.4595,5.9337e-05,6.56e-06,0.0,0 STARLINK-3507,1 51753U 22016AR  24213.87834202  .00000656  00000-0  59337-4 0  9996,2 51753  53.2182  58.9432 0001381 101.6553 258.4595 15.08831904135263,6917.905,95.438,540.725,538.815,0.0
51753.0,STARLINK-3507,PAYLOAD,2024-08-01 12:58:39,15.08845409,0.0001699,53.219,55.9679,95.0695,265.0491,0.00011853,1.599e-05,0.0,0 STARLINK-3507,1 51753U 22016AR  24214.54073369  .00001599  00000-0  11853-3 0  9997,2 51753  53.2190  55.9679 0001699  95.0695 265.0491 15.08845409136431,6917.864,95.437,540.904,538.554,0.0
51753.0,STARLINK-3507,PAYLOAD,2024-08-01 22:30:57,15.08854134,0.0001556,53.2162,54.1784,87.9873,272.1297,0.00023378,3.436e-05,0.0,0 STARLINK-3507,1 51753U 22016AR  24214.93816623  .00003436  00000-0  23378-3 0  9995,2 51753  53.2162  54.1784 0001556  87.9873 272.1297 15.08854134135424,6917.837,95.437,540.779,538.626,0.0
51753.0,STARLINK-3507,PAYLOAD,2024-08-02 12:49:27,15.0882149,0.0001556,53.2179,51.5074,83.7436,276.3734,-6.5301e-05,-1.327e-05,0.0,0 STARLINK-3507,1 51753U 22016AR  24215.53434440 -.00001327  00000-0 -65301-4 0  9997,2 51753  53.2179  51.5074 0001556  83.7436 276.3734 15.08821490136583,6917.937,95.439,540.878,538.726,0.0
51753.0,STARLINK-3507,PAYLOAD,2024-08-02 20:46:22,15.08830001,0.0001473,53.2162,50.0194,84.0929,276.0231,-7.6297e-05,-1.502e-05,0.0,0 STARLINK-3507,1 51753U 22016AR  24215.86554047 -.00001502  00000-0 -76297-4 0  9990,2 51753  53.2162  50.0194 0001473  84.0929 276.0231 15.08830001136634,6917.911,95.438,540.795,538.757,0.0
51753.0,STARLINK-3507,PAYLOAD,2024-08-03 12:40:14,15.08838281,0.0001522,53.216,47.0464,84.051,276.0656,0.00023434,3.443e-05,0.0,0 STARLINK-3507,1 51753U 22016AR  24216.52794141  .00003443  00000-0  23434-3 0  9993,2 51753  53.2160  47.0464 0001522  84.0510 276.0656 15.08838281135660,6917.886,95.438,540.804,538.698,0.0
51753.0,STARLINK-3507,PAYLOAD,2024-08-03 19:01:46,15.08838956,0.0001526,53.2155,45.8563,86.298,273.8186,0.00057978,8.951e-05,0.0,0 STARLINK-3507,1 51753U 22016AR  24216.79290449  .00008951  00000-0  57978-3 0  9993,2 51753  53.2155  45.8563 0001526  86.2980 273.8186 15.08838956135706,6917.884,95.438,540.804,538.693,0.0
51753.0,STARLINK-3507,PAYLOAD,2024-08-04 12:31:01,15.08849102,0.0001844,53.218,42.5836,101.4626,258.6573,0.00062564,9.686e-05,0.0,0 STARLINK-3507,1 51753U 22016AR  24217.52154303  .00009686  00000-0  62564-3 0  9996,2 51753  53.2180  42.5836 0001844 101.4626 258.6573 15.08849102135819,6917.853,95.437,540.993,538.442,0.0
51753.0,STARLINK-3507,PAYLOAD,2024-08-04 18:52:33,15.08849161,0.0001593,53.2168,41.3937,102.0672,258.0499,0.00042578,6.496e-05,0.0,0 STARLINK-3507,1 51753U 22016AR  24217.78650078  .00006496  00000-0  42578-3 0  9993,2 51753  53.2168  41.3937 0001593 102.0672 258.0499 15.08849161135853,6917.852,95.437,540.819,538.615,0.0
